[{"OBJECT_NAME":"STARLINK-31455","OBJECT_ID":"2024-056P","EPOCH":"2026-03-09T12:13:45.362784","MEAN_MOTION":15.27582857,"ECCENTRICITY":0.0001321,"INCLINATION":43.002,"RA_OF_ASC_NODE":228.5385,"ARG_OF_PERICENTER":268.2545,"MEAN_ANOMALY":91.8155,"EPHEMERIS_TYPE":0,"CLASSIFICATION_TYPE":"U","NORAD_CAT_ID":59309,"ELEMENT_SET_NO":999,"REV_AT_EPOCH":11116,"BSTAR":7.1857752e-5,"MEAN_MOTION_DOT":1.716e-5,"MEAN_MOTION_DDOT":0},{"OBJECT_NAME":"OBJECT B","OBJECT_ID":"2024-153B","EPOCH":"2026-03-09T23:15:18.632160","MEAN_MOTION":15.30512917,"ECCENTRICITY":0.00113423,"INCLINATION":97.6622,"RA_OF_ASC_NODE":204.9195,"ARG_OF_PERICENTER":149.8438,"MEAN_ANOMALY":210.3457,"EPHEMERIS_TYPE":0,"CLASSIFICATION_TYPE":"U","NORAD_CAT_ID":60746,"ELEMENT_SET_NO":999,"REV_AT_EPOCH":8476,"BSTAR":0.00066193599,"MEAN_MOTION_DOT":0.00019515,"MEAN_MOTION_DDOT":0}]
